{"_default": { "16": {"norad_id": "40908", "name": "LILACSAT 2", "tle1": "1 40908U 15049K   26165.49876693  .00016724  00000-0  28568-3 0  9994", "tle2": "2 40908  97.4648 202.2380 0005381 258.0299 102.0349 15.51366738595339", "object_type": "PAYLOAD", "criticality_score": 9.0, "last_updated": "2026-06-14T17:46:05.057534+00:00", "maneuver_count": 0, "owner": "N/A"}, "17": {"norad_id": "40057", "name": "VELOX 1", "tle1": "1 40057U 14034E   26165.51984186  .00004743  00000-0  40851-3 0  9999", "tle2": "2 40057  98.2545  70.3726 0006478 286.4585  73.5923 14.97859627646204", "object_type": "PAYLOAD", "criticality_score": 9.0, "last_updated": "2026-06-14T17:46:05.057534+00:00", "maneuver_count": 0, "owner": "N/A"}, "18": {"norad_id": "40055", "name": "CANX-4", "tle1": "1 40055U 14034C   26165.51742220  .00000844  00000-0  11550-3 0  9990", "tle2": "2 40055  98.3125  40.7324 0013347  25.3372 334.8491 14.81260290644137", "object_type": "PAYLOAD", "criticality_score": 9.0, "last_updated": "2026-06-14T17:46:05.057534+00:00", "maneuver_count": 0, "owner": "N/A"}, "19": {"norad_id": "40054", "name": "AISAT", "tle1": "1 40054U 14034B   26165.51080756  .00010176  00000-0  65115-3 0  9993", "tle2": "2 40054  98.2397  77.7228 0007987 224.0588 136.0002 15.08783064646804", "object_type": "PAYLOAD", "criticality_score": 9.0, "last_updated": "2026-06-14T17:46:05.057534+00:00", "maneuver_count": 0, "owner": "N/A"}, "20": {"norad_id": "40043", "name": "TIGRISAT", "tle1": "1 40043U 14033AK  26165.35351954  .00002110  00000-0  24722-3 0  9991", "tle2": "2 40043  97.7824 315.4300 0050677  84.2807 276.4183 14.85153048645207", "object_type": "PAYLOAD", "criticality_score": 9.0, "last_updated": "2026-06-14T17:46:05.057534+00:00", "maneuver_count": 0, "owner": "N/A"}, "51": {"norad_id": "40074", "name": "UKUBE 1", "tle1": "1 40074U 14037F   26165.45768822  .00007940  00000-0  44745-3 0  9999", "tle2": "2 40074  98.4229 168.4428 0002530 134.4762 225.6674 15.13517247648142", "object_type": "PAYLOAD", "criticality_score": 9.0, "last_updated": "2026-06-14T17:46:05.057534+00:00", "maneuver_count": 0, "owner": "N/A"}, "52": {"norad_id": "40042", "name": "POLYITAN 1", "tle1": "1 40042U 14033AJ  26165.31119164  .00018464  00000-0  57760-3 0  9998", "tle2": "2 40042  98.0938 191.3000 0008451 149.3870 210.7865 15.33167050653153", "object_type": "PAYLOAD", "criticality_score": 9.0, "last_updated": "2026-06-14T17:46:05.057534+00:00", "maneuver_count": 0, "owner": "N/A"}, "53": {"norad_id": "40025", "name": "QB50P1", "tle1": "1 40025U 14033R   26164.98653313  .00008764  00000-0  43164-3 0  9995", "tle2": "2 40025  98.0960 175.9078 0007562 228.0389 132.0200 15.18216590652542", "object_type": "PAYLOAD", "criticality_score": 9.0, "last_updated": "2026-06-14T17:46:05.057534+00:00", "maneuver_count": 0, "owner": "N/A"}, "84": {"norad_id": "40032", "name": "QB50P2", "tle1": "1 40032U 14033Y   26165.45843000  .00006505  00000-0  35082-3 0  9991", "tle2": "2 40032  98.0744 162.1686 0007753 171.9100 188.2256 15.15127988652253", "object_type": "PAYLOAD", "criticality_score": 9.0, "last_updated": "2026-06-14T17:46:05.057534+00:00", "maneuver_count": 0, "owner": "N/A"}, "85": {"norad_id": "40030", "name": "DTUSAT 2", "tle1": "1 40030U 14033W   26165.46389939  .00006848  00000-0  37065-3 0  9999", "tle2": "2 40030  98.0857 163.0180 0006425 236.3863 123.6755 15.14988518652274", "object_type": "PAYLOAD", "criticality_score": 9.0, "last_updated": "2026-06-14T17:46:05.057534+00:00", "maneuver_count": 0, "owner": "N/A"}, "110": {"norad_id": "40056", "name": "CANX-5", "tle1": "1 40056U 14034D   26165.38078656  .00000859  00000-0  11735-3 0  9992", "tle2": "2 40056  98.3127  40.6342 0013369  25.8843 334.3034 14.81277276634927", "object_type": "PAYLOAD", "criticality_score": 9.0, "last_updated": "2026-06-14T17:46:05.057534+00:00", "maneuver_count": 0, "owner": "N/A"}, "141": {"norad_id": "40071", "name": "DX 1", "tle1": "1 40071U 14037C   26165.47374464  .00001083  00000-0  11885-3 0  9994", "tle2": "2 40071  98.3861 127.0105 0005798 287.7743  72.2840 14.89978424645703", "object_type": "PAYLOAD", "criticality_score": 9.0, "last_updated": "2026-06-14T17:46:05.057534+00:00", "maneuver_count": 0, "owner": "N/A"}, "142": {"norad_id": "40069", "name": "METEOR M2", "tle1": "1 40069U 14037A   26165.47078064  .00000346  00000-0  17721-3 0  9994", "tle2": "2 40069  98.5104 141.3050 0006853  50.7487 309.4298 14.21462070618934", "object_type": "PAYLOAD", "criticality_score": 9.0, "last_updated": "2026-06-14T17:46:05.057534+00:00", "maneuver_count": 0, "owner": "N/A"}, "152": {"norad_id": "40719", "name": "DEORBITSAIL", "tle1": "1 40719U 15032E   26165.42931275  .00007321  00000-0  53583-3 0  9995", "tle2": "2 40719  97.5877  22.3100 0011689 242.7732 117.2303 15.03817929590833", "object_type": "PAYLOAD", "criticality_score": 9.0, "last_updated": "2026-06-14T17:46:05.057534+00:00", "maneuver_count": 0, "owner": "N/A"}, "185": {"norad_id": "40905", "name": "OBJECT G", "tle1": "1 40905U 15049G   26165.49349002  .00040792  00000-0  39547-3 0  9991", "tle2": "2 40905  97.4558 209.4046 0005028 201.0641 159.0412 15.66256230596022", "object_type": "PAYLOAD", "criticality_score": 9.0, "last_updated": "2026-06-14T17:46:05.057534+00:00", "maneuver_count": 0, "owner": "N/A"}, "227": {"norad_id": "40039", "name": "PERSEUS M1", "tle1": "1 40039U 14033AF  26165.36004588  .00001117  00000-0  10597-3 0  9996", "tle2": "2 40039  97.9644 109.4456 0010513 312.2620  47.7708 14.95623959650212", "object_type": "PAYLOAD", "criticality_score": 9.0, "last_updated": "2026-06-14T17:46:05.057534+00:00", "maneuver_count": 0, "owner": "N/A"}, "260": {"norad_id": "40376", "name": "SMAP", "tle1": "1 40376U 15003A   26165.48158954  .00000382  00000-0  82989-4 0  9996", "tle2": "2 40376  98.1276 172.6145 0001302  95.2533 264.8817 14.63364512607222", "object_type": "PAYLOAD", "criticality_score": 9.0, "last_updated": "2026-06-14T17:46:05.057534+00:00", "maneuver_count": 0, "owner": "N/A"}, "274": {"norad_id": "40119", "name": "BRITE-PL 2", "tle1": "1 40119U 14049B   26165.56132921  .00001392  00000-0  13390-3 0  9996", "tle2": "2 40119  97.9095 277.5411 0015205 116.2621 244.0164 14.94585543641050", "object_type": "PAYLOAD", "criticality_score": 9.0, "last_updated": "2026-06-14T17:46:05.057534+00:00", "maneuver_count": 0, "owner": "N/A"}, "288": {"norad_id": "40715", "name": "DMC 3-FM1", "tle1": "1 40715U 15032A   26165.51144065  .00000803  00000-0  98431-4 0  9994", "tle2": "2 40715  97.6471  30.7916 0007053  67.0281 293.1679 14.85735880589512", "object_type": "PAYLOAD", "criticality_score": 9.0, "last_updated": "2026-06-14T17:46:05.057534+00:00", "maneuver_count": 0, "owner": "N/A"}, "289": {"norad_id": "40716", "name": "DMC 3-FM2", "tle1": "1 40716U 15032B   26165.53350138  .00001170  00000-0  14057-3 0  9996", "tle2": "2 40716  97.6527  32.3850 0007680  71.0060 289.1988 14.85744051589514", "object_type": "PAYLOAD", "criticality_score": 9.0, "last_updated": "2026-06-14T17:46:05.057534+00:00", "maneuver_count": 0, "owner": "N/A"}, "290": {"norad_id": "40717", "name": "DMC 3-FM3", "tle1": "1 40717U 15032C   26165.48946066  .00000142  00000-0  22297-4 0  9996", "tle2": "2 40717  97.6579  34.0940 0006855  70.8380 289.3577 14.85730243589510", "object_type": "PAYLOAD", "criticality_score": 9.0, "last_updated": "2026-06-14T17:46:05.057534+00:00", "maneuver_count": 0, "owner": "N/A"}, "295": {"norad_id": "40718", "name": "CARBONITE 1", "tle1": "1 40718U 15032D   26165.48468051  .00001154  00000-0  14610-3 0  9993", "tle2": "2 40718  97.6500 343.6646 0013287 307.7991  52.2020 14.83579358588946", "object_type": "PAYLOAD", "criticality_score": 9.0, "last_updated": "2026-06-14T17:46:05.057534+00:00", "maneuver_count": 0, "owner": "N/A"}, "503": {"norad_id": "40336", "name": "CBERS-4", "tle1": "1 40336U 14079A   26165.52794134  .00000379  00000-0  14643-3 0  9992", "tle2": "2 40336  98.3538 222.4430 0001917  65.6918 294.4468 14.35509313603576", "object_type": "PAYLOAD", "criticality_score": 9.0, "last_updated": "2026-06-14T17:46:05.057534+00:00", "maneuver_count": 0, "owner": "N/A"}, "601": {"norad_id": "40063", "name": "GONETS M 10 (M20)", "tle1": "1 40063U 14036C   26165.49466090  .00000037  00000-0  19303-3 0  9994", "tle2": "2 40063  82.5105 309.3469 0022549 146.2073 214.0449 12.42945757541915", "object_type": "PAYLOAD", "criticality_score": 9.0, "last_updated": "2026-06-14T17:46:05.057534+00:00", "maneuver_count": 0, "owner": "N/A"}, "602": {"norad_id": "40552", "name": "GONETS M 11 (M21)", "tle1": "1 40552U 15020A   26165.51294200  .00000075  00000-0  47050-3 0  9998", "tle2": "2 40552  82.4879  32.6588 0016754  11.4601 348.6856 12.42877214508409", "object_type": "PAYLOAD", "criticality_score": 9.0, "last_updated": "2026-06-14T17:46:05.057534+00:00", "maneuver_count": 0, "owner": "N/A"}, "603": {"norad_id": "40553", "name": "GONETS M 12 (M22)", "tle1": "1 40553U 15020B   26165.48646190 -.00000015  00000-0 -17767-3 0  9992", "tle2": "2 40553  82.4913  33.7985 0015492 356.8296   3.2683 12.42890872508391", "object_type": "PAYLOAD", "criticality_score": 9.0, "last_updated": "2026-06-14T17:46:05.057534+00:00", "maneuver_count": 0, "owner": "N/A"}, "604": {"norad_id": "40554", "name": "GONETS M 13 (M23)", "tle1": "1 40554U 15020C   26165.45989826  .00000022  00000-0  89090-4 0  9991", "tle2": "2 40554  82.4874  32.4308 0013794 342.3485  17.7113 12.42870136508362", "object_type": "PAYLOAD", "criticality_score": 9.0, "last_updated": "2026-06-14T17:46:05.057534+00:00", "maneuver_count": 0, "owner": "N/A"}, "605": {"norad_id": "40920", "name": "COSMOS 2507", "tle1": "1 40920U 15050A   26165.49541785  .00000068  00000-0  41895-3 0  9993", "tle2": "2 40920  82.4928  81.3460 0010322   2.6045 357.5087 12.42926788486526", "object_type": "PAYLOAD", "criticality_score": 9.0, "last_updated": "2026-06-14T17:46:05.057534+00:00", "maneuver_count": 0, "owner": "N/A"}, "606": {"norad_id": "40921", "name": "COSMOS 2508", "tle1": "1 40921U 15050B   26165.53090903 -.00000033  00000-0 -31210-3 0  9994", "tle2": "2 40921  82.4881  79.8299 0015265  32.3183 327.8829 12.42913853486513", "object_type": "PAYLOAD", "criticality_score": 9.0, "last_updated": "2026-06-14T17:46:05.057534+00:00", "maneuver_count": 0, "owner": "N/A"}, "607": {"norad_id": "40922", "name": "COSMOS 2509", "tle1": "1 40922U 15050C   26165.55118186  .00000003  00000-0 -52321-4 0  9994", "tle2": "2 40922  82.4889  79.9194 0015784  48.2900 311.9527 12.42883410486554", "object_type": "PAYLOAD", "criticality_score": 9.0, "last_updated": "2026-06-14T17:46:05.057534+00:00", "maneuver_count": 0, "owner": "N/A"}, "661": {"norad_id": "40118", "name": "GAOFEN 2", "tle1": "1 40118U 14049A   26165.54120814  .00001068  00000-0  14515-3 0  9991", "tle2": "2 40118  98.0117 229.7508 0006012 236.9030 123.1605 14.80897516638843", "object_type": "PAYLOAD", "criticality_score": 9.0, "last_updated": "2026-06-14T17:46:05.057534+00:00", "maneuver_count": 0, "owner": "N/A"}}}